1 45535U 20025E   22365.07713085  .00016820  00000-0  11444-2 0  9993
2 45535  53.0548 294.7762 0001416  71.4385 288.6758 15.06430916148974
1 45535U 20025E   22365.54155187  .00010872  00000-0  74693-3 0  9995
2 45535  53.0547 292.6909 0001566  70.5843 289.5316 15.06434308149631
1 45535U 20025E   22365.80693739  .00006715  00000-0  46893-3 0  9996
2 45535  53.0554 291.4989 0002113  91.1791 268.9440 15.06429367149676
1 45535U 20025E   23001.07232433  .00001959  00000-0  15029-3 0  9995
2 45535  53.0553 290.3090 0001521  64.4351 295.6795 15.06414867149122
1 45535U 20025E   23001.20502128  .00007884  00000-0  54755-3 0  9993
2 45535  53.0553 289.7157 0001465  61.2630 298.8506 15.06400332149734
1 45535U 20025E   23001.20502128  .00007884  00000-0  54755-3 0  9993
2 45535  53.0553 289.7157 0001465  61.2630 298.8506 15.06400332149149
1 45535U 20025E   23001.80215760  .00000649  00000-0  62501-4 0  9993
2 45535  53.0551 287.0336 0001580  69.1724 290.9434 15.06374960149821
1 45535U 20025E   23001.80215760  .00000649  00000-0  62501-4 0  9993
2 45535  53.0551 287.0336 0001580  69.1724 290.9434 15.06374960149236
1 45535U 20025E   23002.46563894  .00000291  00000-0  38463-4 0  9993
2 45535  53.0552 284.0545 0001614  74.9582 285.1585 15.06376526149929
1 45535U 20025E   23002.79737656  .00002815  00000-0  20788-3 0  9992
2 45535  53.0556 282.5654 0001573  72.6410 287.4751 15.06381330149970
1 45535U 20025E   23003.12911338  .00008095  00000-0  56184-3 0  9996
2 45535  53.0557 281.0763 0001629  74.0969 286.0200 15.06390368149439
1 45535U 20025E   23003.46084681  .00013271  00000-0  90798-3 0  9996
2 45535  53.0556 279.5870 0001625  76.0918 284.0252 15.06405399150079
1 45535U 20025E   23004.45604370  .00011563  00000-0  79347-3 0  9998
2 45535  53.0553 275.1197 0001601  79.7394 280.3775 15.06418454150224
1 45535U 20025E   23004.45604370  .00011563  00000-0  79347-3 0  9998
2 45535  53.0553 275.1197 0001601  79.7394 280.3775 15.06418454149637
1 45535U 20025E   23005.11950412  .00007349  00000-0  51143-3 0  9994
2 45535  53.0551 272.1414 0001591  79.8369 280.2799 15.06421088149738
1 45535U 20025E   23005.45123085  .00008134  00000-0  56387-3 0  9997
2 45535  53.0551 270.6526 0001541  80.4734 279.6429 15.06428801150378
1 45535U 20025E   23006.44643952 -.00008799  00000-0 -57278-3 0  9996
2 45535  53.0541 266.1855 0001842  76.5619 283.5575 15.06383848150528
1 45535U 20025E   23006.44643952 -.00008799  00000-0 -57278-3 0  9996
2 45535  53.0541 266.1855 0001842  76.5619 283.5575 15.06383848149931
1 45535U 20025E   23007.10991361  .00003315  00000-0  24144-3 0  9993
2 45535  53.0539 263.2055 0001330  81.4766 278.6374 15.06387315150621
1 45535U 20025E   23007.10991361  .00003315  00000-0  24144-3 0  9993
2 45535  53.0539 263.2055 0001330  81.4766 278.6374 15.06387315150036
1 45535U 20025E   23008.10512070  .00008889  00000-0  61485-3 0  9990
2 45535  53.0542 258.7381 0001304  82.5454 277.5683 15.06401528150773
1 45535U 20025E   23008.10512070  .00008889  00000-0  61485-3 0  9990
2 45535  53.0542 258.7381 0001304  82.5454 277.5683 15.06401528150188
1 45535U 20025E   23009.03397250  .00005495  00000-0  38742-3 0  9994
2 45535  53.0542 254.5689 0001289  80.2762 279.8373 15.06408156150323
1 45535U 20025E   23009.36570346  .00004983  00000-0  35304-3 0  9991
2 45535  53.0541 253.0797 0001285  80.8166 279.2969 15.06411291150965
1 45535U 20025E   23010.09552119 -.00000241  00000-0  27282-5 0  9993
2 45535  53.0541 249.8038 0001616  85.2697 274.8476 15.06399321150482
1 45535U 20025E   23010.36091166  .00000129  00000-0  27566-4 0  9991
2 45535  53.0546 248.6119 0001595  92.4618 267.6554 15.06394961151116
1 45535U 20025E   23010.69264661  .00000498  00000-0  52321-4 0  9995
2 45535  53.0548 247.1226 0001674  84.7287 275.3893 15.06392385151160
1 45535U 20025E   23011.35610549  .00002929  00000-0  21543-3 0  9991
2 45535  53.0554 244.1441 0001614  83.4037 276.7136 15.06406542151263
1 45535U 20025E   23011.35610549  .00002929  00000-0  21543-3 0  9991
2 45535  53.0554 244.1441 0001614  83.4037 276.7136 15.06406542150677
1 45535U 20025E   23011.88688097  .00002873  00000-0  21166-3 0  9991
2 45535  53.0488 241.7617 0001464  84.2482 275.8674 15.06402128151345
1 45535U 20025E   23012.01957772  .00001319  00000-0  10741-3 0  9997
2 45535  53.0555 241.1656 0001469  85.0692 275.0465 15.06398747150771
1 45535U 20025E   23012.88208008 -.00002690  00000-0 -16169-3 0  9998
2 45535  53.0554 237.2943 0001347  84.2197 275.8946 15.06412306151491
1 45535U 20025E   23013.01477019 -.00003180  00000-0 -19459-3 0  9994
2 45535  53.0553 236.6987 0001323  83.8807 276.2332 15.06416558150922
1 45535U 20025E   23013.34651023 -.00001102  00000-0 -55117-4 0  9993
2 45535  53.0568 235.2077 0000903  94.6716 265.4376 15.06399190151566
1 45535U 20025E   23013.34651023 -.00001102  00000-0 -55117-4 0  9993
2 45535  53.0568 235.2077 0000903  94.6716 265.4376 15.06399190150970
1 45535U 20025E   23013.87730145 -.00002494  00000-0 -14868-3 0  9996
2 45535  53.0545 232.8267 0001307  94.2437 265.8702 15.06380193151649
1 45535U 20025E   23014.00998915  .00001163  00000-0  97000-4 0  9993
2 45535  53.0544 232.2309 0001313  97.9598 262.1540 15.06394971151070
1 45535U 20025E   23015.27059071  .00003657  00000-0  26431-3 0  9993
2 45535  53.0520 226.5715 0001668 100.6377 259.4800 15.06393605151263
1 45535U 20025E   23015.60232702  .00004777  00000-0  33945-3 0  9996
2 45535  53.0520 225.0823 0001667 100.5295 259.5882 15.06394043151903
1 45535U 20025E   23015.86771255  .00006491  00000-0  45421-3 0  9992
2 45535  53.0527 223.8911 0001574 100.4543 259.6623 15.06403198151946
1 45535U 20025E   23016.59753142 -.00000716  00000-0 -29203-4 0  9995
2 45535  53.0541 220.6159 0001625 103.0547 257.0624 15.06391558152053
1 45535U 20025E   23016.59753142 -.00000716  00000-0 -29203-4 0  9995
2 45535  53.0541 220.6159 0001625 103.0547 257.0624 15.06391558151467
1 45535U 20025E   23016.86292119 -.00000679  00000-0 -26715-4 0  9990
2 45535  53.0538 219.4244 0001597 102.4928 257.6240 15.06389956152097
1 45535U 20025E   23017.59273626  .00001297  00000-0  10596-3 0  9997
2 45535  53.0530 216.1479 0001510  99.6274 260.4886 15.06396744152203
1 45535U 20025E   23017.92446843  .00001683  00000-0  13184-3 0  9992
2 45535  53.0525 214.6582 0001461  97.0784 263.0371 15.06400954151664
1 45535U 20025E   23018.52159092  .00004203  00000-0  30087-3 0  9998
2 45535  53.0522 211.9773 0001460  95.2741 264.8415 15.06402256152346
1 45535U 20025E   23018.78697610  .00004909  00000-0  34815-3 0  9995
2 45535  53.0519 210.7858 0001436  95.9131 264.2022 15.06406984152380
1 45535U 20025E   23019.31775150  .00001394  00000-0  11244-3 0  9997
2 45535  53.0522 208.4030 0001329  95.3160 264.7980 15.06401736151878
1 45535U 20025E   23019.51679479  .00000894  00000-0  78916-4 0  9990
2 45535  53.0521 207.5094 0001330  95.9695 264.1445 15.06396222152490
1 45535U 20025E   23019.78218744  .00001858  00000-0  14364-3 0  9990
2 45535  53.0531 206.3178 0001362  96.9549 263.1595 15.06390251151945
1 45535U 20025E   23020.51200131  .00000668  00000-0  63765-4 0  9992
2 45535  53.0533 203.0419 0001411  92.8789 267.2362 15.06392362152645
1 45535U 20025E   23020.64468487 -.00006637  00000-0 -42681-3 0  9993
2 45535  53.0533 202.4461 0001583  84.6407 275.4763 15.06423979152073
1 45535U 20025E   23020.91007825 -.00000428  00000-0 -98394-5 0  9994
2 45535  53.0533 201.2545 0001371  90.4281 269.6865 15.06399965152113
1 45535U 20025E   23021.70623292  .00002512  00000-0  18745-3 0  9998
2 45535  53.0534 197.6802 0001351  89.6517 270.4627 15.06404389152234
1 45535U 20025E   23022.50240769  .00000356  00000-0  42796-4 0  9999
2 45535  53.0534 194.1062 0001339  90.0068 270.1074 15.06390743152351
1 45535U 20025E   23022.76777625  .00003058  00000-0  22400-3 0  9994
2 45535  53.0538 192.9151 0001014  93.8309 266.2796 15.06411880152396
1 45535U 20025E   23023.56394976 -.00000159  00000-0  82158-5 0  9995
2 45535  53.0529 189.3398 0001241  83.5338 276.5792 15.06400415152515
1 45535U 20025E   23023.89568852 -.00001336  00000-0 -70819-4 0  9996
2 45535  53.0540 187.8498 0001194  81.1573 278.9551 15.06395902152562
1 45535U 20025E   23024.75819127 -.00000103  00000-0  11997-4 0  9998
2 45535  53.0533 183.9789 0001049  92.0226 268.0883 15.06404672152696
1 45535U 20025E   23025.42166545  .00001161  00000-0  96872-4 0  9991
2 45535  53.0522 181.0034 0001153  70.8917 289.2197 15.06390803153383
1 45535U 20025E   23025.42166545  .00001161  00000-0  96872-4 0  9991
2 45535  53.0522 181.0034 0001153  70.8917 289.2197 15.06390803152797
1 45535U 20025E   23025.68705432  .00000988  00000-0  85243-4 0  9999
2 45535  53.0532 179.8097 0001102  77.9691 282.1421 15.06390855153423
1 45535U 20025E   23026.61589533 -.00009261  00000-0 -60286-3 0  9999
2 45535  53.0529 175.6407 0001034  67.9165 292.1934 15.06447621153566
1 45535U 20025E   23026.68224202 -.00007670  00000-0 -49604-3 0  9998
2 45535  53.0529 175.3427 0001167  66.6544 293.4568 15.06440928152984
1 45535U 20025E   23027.61111609  .00000102  00000-0  25753-4 0  9999
2 45535  53.0532 171.1728 0001202  77.1197 282.9926 15.06391075153718
1 45535U 20025E   23027.67746151  .00000077  00000-0  24068-4 0  9990
2 45535  53.0533 170.8747 0001205  78.7594 281.3530 15.06393606153724
1 45535U 20025E   23027.67746151  .00000077  00000-0  24068-4 0  9990
2 45535  53.0533 170.8747 0001205  78.7594 281.3530 15.06393606153139
1 45535U 20025E   23028.53996813 -.00001260  00000-0 -65729-4 0  9994
2 45535  53.0535 167.0023 0001255  82.4005 277.7127 15.06402489153850
1 45535U 20025E   23028.80535158  .00000373  00000-0  43932-4 0  9999
2 45535  53.0536 165.8105 0001242  88.5241 271.5890 15.06403107153894
1 45535U 20025E   23028.80535158  .00000373  00000-0  43932-4 0  9999
2 45535  53.0536 165.8105 0001242  88.5241 271.5890 15.06403107153300
1 45535U 20025E   23029.07074628 -.00001241  00000-0 -64453-4 0  9997
2 45535  53.0536 164.6179 0001378  80.4218 279.6926 15.06396538153345
1 45535U 20025E   23029.80056763 -.00000343  00000-0 -41215-5 0  9992
2 45535  53.0543 161.3428 0001129  84.0277 276.0840 15.06389593154040
1 45535U 20025E   23030.06595594 -.00000193  00000-0  58984-5 0  9995
2 45535  53.0544 160.1519 0001100  92.0376 268.0739 15.06388862153491
1 45535U 20025E   23030.46403636  .00000195  00000-0  31988-4 0  9999
2 45535  53.0544 158.3639 0001073  88.9475 271.1637 15.06391022154143
1 45535U 20025E   23031.06114963 -.00002843  00000-0 -17196-3 0  9996
2 45535  53.0545 155.6837 0001049  90.7142 269.3967 15.06412851153642
1 45535U 20025E   23031.32654333  .00000871  00000-0  77344-4 0  9994
2 45535  53.0543 154.4925 0001064  85.1426 274.9685 15.06393746153689
1 45535U 20025E   23031.52557274 -.00005076  00000-0 -32189-3 0  9993
2 45535  53.0541 153.5992 0001236  78.7307 281.3821 15.06427338154307
1 45535U 20025E   23031.72461569  .00001870  00000-0  14441-3 0  9993
2 45535  53.0541 152.7054 0001080  84.9202 275.1911 15.06403959154334
1 45535U 20025E   23031.72461569  .00001870  00000-0  14441-3 0  9993
2 45535  53.0541 152.7054 0001080  84.9202 275.1911 15.06403959153748
